[{"OBJECT_NAME":"STARLINK-31823","OBJECT_ID":"2024-093N","EPOCH":"2026-03-08T16:39:02.279232","MEAN_MOTION":15.27589278,"ECCENTRICITY":0.0002017,"INCLINATION":42.9987,"RA_OF_ASC_NODE":214.4702,"ARG_OF_PERICENTER":273.8979,"MEAN_ANOMALY":86.1642,"EPHEMERIS_TYPE":0,"CLASSIFICATION_TYPE":"U","NORAD_CAT_ID":59794,"ELEMENT_SET_NO":999,"REV_AT_EPOCH":10254,"BSTAR":2.0372724e-5,"MEAN_MOTION_DOT":2.98e-6,"MEAN_MOTION_DDOT":0},{"OBJECT_NAME":"OBJECT C","OBJECT_ID":"2026-023C","EPOCH":"2026-03-09T17:14:42.726048","MEAN_MOTION":15.23105823,"ECCENTRICITY":0.00205519,"INCLINATION":96.6388,"RA_OF_ASC_NODE":141.6892,"ARG_OF_PERICENTER":122.5463,"MEAN_ANOMALY":237.7764,"EPHEMERIS_TYPE":0,"CLASSIFICATION_TYPE":"U","NORAD_CAT_ID":67676,"ELEMENT_SET_NO":999,"REV_AT_EPOCH":502,"BSTAR":0.00045389382,"MEAN_MOTION_DOT":0.00010715,"MEAN_MOTION_DDOT":0}]
